{"type": "FeatureCollection", "features": [ {"type": "Feature", "properties": {"norad_id": 40664, "name": "SKY MEXICO-1", "group": "intelsat", "lat": -0.008448721969236433, "lon": 156.96639686529238, "alt_km": 35790.214634664095, "timestamp": "2025-12-03T10:52:57.117910+00:00", "meta": {"OBJECT_NAME": "SKY MEXICO-1", "OBJECT_ID": "2015-026B", "EPOCH": "2025-12-03T03:06:29.169792", "MEAN_MOTION": 1.00270599, "ECCENTRICITY": 0.0002749, "INCLINATION": 0.0169, "RA_OF_ASC_NODE": 330.8683, "ARG_OF_PERICENTER": 295.1726, "MEAN_ANOMALY": 134.0467, "EPHEMERIS_TYPE": 0, "CLASSIFICATION_TYPE": "U", "NORAD_CAT_ID": 40664, "ELEMENT_SET_NO": 999, "REV_AT_EPOCH": 3848, "BSTAR": 0, "MEAN_MOTION_DOT": -2.15e-06, "MEAN_MOTION_DDOT": 0}, "tle": {"line1": "1 40664U 15026B   25337.12950428 -.00000215  00000+0  00000+0 0  9992", "line2": "2 40664   0.0169 330.8683 0002749 295.1726 134.0467  1.00270599 38484"}}, "geometry": {"type": "Point", "coordinates": [156.96639686529238, -0.008448721969236433]}}, {"type": "Feature", "properties": {"norad_id": 40874, "name": "INTELSAT 34 (IS-34)", "group": "intelsat", "lat": -0.030316900371695925, "lon": -179.74298891540002, "alt_km": 35784.218221193725, "timestamp": "2025-12-03T10:52:57.117921+00:00", "meta": {"OBJECT_NAME": "INTELSAT 34 (IS-34)", "OBJECT_ID": "2015-039A", "EPOCH": "2025-12-03T03:13:06.036960", "MEAN_MOTION": 1.0027034, "ECCENTRICITY": 5.63e-05, "INCLINATION": 0.0136, "RA_OF_ASC_NODE": 301.1057, "ARG_OF_PERICENTER": 227.0819, "MEAN_ANOMALY": 256.8178, "EPHEMERIS_TYPE": 0, "CLASSIFICATION_TYPE": "U", "NORAD_CAT_ID": 40874, "ELEMENT_SET_NO": 999, "REV_AT_EPOCH": 3765, "BSTAR": 0, "MEAN_MOTION_DOT": -2.66e-06, "MEAN_MOTION_DDOT": 0}, "tle": {"line1": "1 40874U 15039A   25337.13409765 -.00000266  00000+0  00000+0 0  9999", "line2": "2 40874   0.0136 301.1057 0000563 227.0819 256.8178  1.00270340 37650"}}, "geometry": {"type": "Point", "coordinates": [-179.74298891540002, -0.030316900371695925]}}, {"type": "Feature", "properties": {"norad_id": 41581, "name": "INTELSAT 31 (IS-31)", "group": "intelsat", "lat": -0.014411505110499006, "lon": 140.67253429151629, "alt_km": 35785.41268221407, "timestamp": "2025-12-03T10:52:57.117933+00:00", "meta": {"OBJECT_NAME": "INTELSAT 31 (IS-31)", "OBJECT_ID": "2016-035A", "EPOCH": "2025-12-02T09:32:38.891904", "MEAN_MOTION": 1.00269687, "ECCENTRICITY": 0.00019053, "INCLINATION": 0.0144, "RA_OF_ASC_NODE": 272.373, "ARG_OF_PERICENTER": 308.7593, "MEAN_ANOMALY": 258.4788, "EPHEMERIS_TYPE": 0, "CLASSIFICATION_TYPE": "U", "NORAD_CAT_ID": 41581, "ELEMENT_SET_NO": 999, "REV_AT_EPOCH": 3471, "BSTAR": 0, "MEAN_MOTION_DOT": -1.3e-06, "MEAN_MOTION_DDOT": 0}, "tle": {"line1": "1 41581U 16035A   25336.39767236 -.00000130  00000+0  00000+0 0  9999", "line2": "2 41581   0.0144 272.3730 0001905 308.7593 258.4788  1.00269687 34710"}}, "geometry": {"type": "Point", "coordinates": [140.67253429151629, -0.014411505110499006]}}, {"type": "Feature", "properties": {"norad_id": 41747, "name": "INTELSAT 36 (IS-36)", "group": "intelsat", "lat": -0.017189026614543582, "lon": -55.74058486072539, "alt_km": 35780.92096826068, "timestamp": "2025-12-03T10:52:57.117945+00:00", "meta": {"OBJECT_NAME": "INTELSAT 36 (IS-36)", "OBJECT_ID": "2016-053A", "EPOCH": "2025-12-03T00:23:05.476704", "MEAN_MOTION": 1.00270226, "ECCENTRICITY": 0.0001373, "INCLINATION": 0.0123, "RA_OF_ASC_NODE": 348.519, "ARG_OF_PERICENTER": 330.1213, "MEAN_ANOMALY": 187.7546, "EPHEMERIS_TYPE": 0, "CLASSIFICATION_TYPE": "U", "NORAD_CAT_ID": 41747, "ELEMENT_SET_NO": 999, "REV_AT_EPOCH": 3398, "BSTAR": 0, "MEAN_MOTION_DOT": -5e-08, "MEAN_MOTION_DDOT": 0}, "tle": {"line1": "1 41747U 16053A   25337.01603561 -.00000005  00000+0  00000+0 0  9994", "line2": "2 41747   0.0123 348.5190 0001373 330.1213 187.7546  1.00270226 33989"}}, "geometry": {"type": "Point", "coordinates": [-55.74058486072539, -0.017189026614543582]}}, {"type": "Feature", "properties": {"norad_id": 41945, "name": "INTELSAT 32E (IS-32E)", "group": "intelsat", "lat": -0.004170179382803623, "lon": -167.41666915387734, "alt_km": 35787.22034978477, "timestamp": "2025-12-03T10:52:57.117956+00:00", "meta": {"OBJECT_NAME": "INTELSAT 32E (IS-32E)", "OBJECT_ID": "2017-007B", "EPOCH": "2025-12-02T22:08:25.880928", "MEAN_MOTION": 1.00269766, "ECCENTRICITY": 1.38e-05, "INCLINATION": 0.0269, "RA_OF_ASC_NODE": 63.4752, "ARG_OF_PERICENTER": 281.8486, "MEAN_ANOMALY": 15.6362, "EPHEMERIS_TYPE": 0, "CLASSIFICATION_TYPE": "U", "NORAD_CAT_ID": 41945, "ELEMENT_SET_NO": 999, "REV_AT_EPOCH": 3225, "BSTAR": 0, "MEAN_MOTION_DOT": -2.49e-06, "MEAN_MOTION_DDOT": 0}, "tle": {"line1": "1 41945U 17007B   25336.92252177 -.00000249  00000+0  00000+0 0  9996", "line2": "2 41945   0.0269  63.4752 0000138 281.8486  15.6362  1.00269766 32250"}}, "geometry": {"type": "Point", "coordinates": [-167.41666915387734, -0.004170179382803623]}}, {"type": "Feature", "properties": {"norad_id": 42818, "name": "INTELSAT 35E (IS-35E)", "group": "intelsat", "lat": -0.03864033249984022, "lon": -158.7439999661575, "alt_km": 35780.32580888426, "timestamp": "2025-12-03T10:52:57.117968+00:00", "meta": {"OBJECT_NAME": "INTELSAT 35E (IS-35E)", "OBJECT_ID": "2017-041A", "EPOCH": "2025-12-03T03:19:05.464416", "MEAN_MOTION": 1.00270944, "ECCENTRICITY": 0.0002331, "INCLINATION": 0.0188, "RA_OF_ASC_NODE": 322.3236, "ARG_OF_PERICENTER": 291.3999, "MEAN_ANOMALY": 193.8045, "EPHEMERIS_TYPE": 0, "CLASSIFICATION_TYPE": "U", "NORAD_CAT_ID": 42818, "ELEMENT_SET_NO": 999, "REV_AT_EPOCH": 3085, "BSTAR": 0, "MEAN_MOTION_DOT": -2.19e-06, "MEAN_MOTION_DDOT": 0}, "tle": {"line1": "1 42818U 17041A   25337.13825769 -.00000219  00000+0  00000+0 0  9998", "line2": "2 42818   0.0188 322.3236 0002331 291.3999 193.8045  1.00270944 30857"}}, "geometry": {"type": "Point", "coordinates": [-158.7439999661575, -0.03864033249984022]}}, {"type": "Feature", "properties": {"norad_id": 42950, "name": "INTELSAT 37E (IS-37E)", "group": "intelsat", "lat": -0.040717465054894375, "lon": -142.25644140355433, "alt_km": 35773.567432861775, "timestamp": "2025-12-03T10:52:57.117979+00:00", "meta": {"OBJECT_NAME": "INTELSAT 37E (IS-37E)", "OBJECT_ID": "2017-059A", "EPOCH": "2025-12-03T00:45:38.739168", "MEAN_MOTION": 1.0027087, "ECCENTRICITY": 0.0003432, "INCLINATION": 0.016, "RA_OF_ASC_NODE": 307.3244, "ARG_OF_PERICENTER": 298.8379, "MEAN_ANOMALY": 179.3848, "EPHEMERIS_TYPE": 0, "CLASSIFICATION_TYPE": "U", "NORAD_CAT_ID": 42950, "ELEMENT_SET_NO": 999, "REV_AT_EPOCH": 3009, "BSTAR": 0, "MEAN_MOTION_DOT": -1.21e-06, "MEAN_MOTION_DDOT": 0}, "tle": {"line1": "1 42950U 17059A   25337.03169837 -.00000121  00000+0  00000+0 0  9992", "line2": "2 42950   0.0160 307.3244 0003432 298.8379 179.3848  1.00270870 30097"}}, "geometry": {"type": "Point", "coordinates": [-142.25644140355433, -0.040717465054894375]}}, {"type": "Feature", "properties": {"norad_id": 43632, "name": "AZERSPACE 2 (IS-38)", "group": "intelsat", "lat": -0.02834885338644999, "lon": -79.12415846800859, "alt_km": 35779.715955490385, "timestamp": "2025-12-03T10:52:57.117991+00:00", "meta": {"OBJECT_NAME": "AZERSPACE 2 (IS-38)", "OBJECT_ID": "2018-074A", "EPOCH": "2025-12-03T01:59:05.629056", "MEAN_MOTION": 1.00271401, "ECCENTRICITY": 0.000169, "INCLINATION": 0.0147, "RA_OF_ASC_NODE": 335.5882, "ARG_OF_PERICENTER": 279.2754, "MEAN_ANOMALY": 252.1997, "EPHEMERIS_TYPE": 0, "CLASSIFICATION_TYPE": "U", "NORAD_CAT_ID": 43632, "ELEMENT_SET_NO": 999, "REV_AT_EPOCH": 2648, "BSTAR": 0, "MEAN_MOTION_DOT": 1.56e-06, "MEAN_MOTION_DDOT": 0}, "tle": {"line1": "1 43632U 18074A   25337.08270404  .00000156  00000+0  00000+0 0  9993", "line2": "2 43632   0.0147 335.5882 0001690 279.2754 252.1997  1.00271401 26489"}}, "geometry": {"type": "Point", "coordinates": [-79.12415846800859, -0.02834885338644999]}}, {"type": "Feature", "properties": {"norad_id": 43633, "name": "HORIZONS-3E", "group": "intelsat", "lat": 0.015104457818490959, "lon": 44.785679236176954, "alt_km": 35788.9092774876, "timestamp": "2025-12-03T10:52:57.118003+00:00", "meta": {"OBJECT_NAME": "HORIZONS-3E", "OBJECT_ID": "2018-074B", "EPOCH": "2025-12-02T09:32:38.562720", "MEAN_MOTION": 1.00268601, "ECCENTRICITY": 0.00010808, "INCLINATION": 0.0303, "RA_OF_ASC_NODE": 208.778, "ARG_OF_PERICENTER": 80.6678, "MEAN_ANOMALY": 94.2479, "EPHEMERIS_TYPE": 0, "CLASSIFICATION_TYPE": "U", "NORAD_CAT_ID": 43633, "ELEMENT_SET_NO": 999, "REV_AT_EPOCH": 2636, "BSTAR": 0, "MEAN_MOTION_DOT": -1e-07, "MEAN_MOTION_DDOT": 0}, "tle": {"line1": "1 43633U 18074B   25336.39766855 -.00000010  00000+0  00000+0 0  9997", "line2": "2 43633   0.0303 208.7780 0001080  80.6678  94.2479  1.00268601 26369"}}, "geometry": {"type": "Point", "coordinates": [44.785679236176954, 0.015104457818490959]}}, {"type": "Feature", "properties": {"norad_id": 44333, "name": "AT&T T-16", "group": "intelsat", "lat": 0.015400973313503827, "lon": 134.89120928345685, "alt_km": 35785.18661078192, "timestamp": "2025-12-03T10:52:57.118015+00:00", "meta": {"OBJECT_NAME": "AT&T T-16", "OBJECT_ID": "2019-034A", "EPOCH": "2025-12-03T04:00:38.641824", "MEAN_MOTION": 1.00268541, "ECCENTRICITY": 4.88e-05, "INCLINATION": 0.0307, "RA_OF_ASC_NODE": 71.0477, "ARG_OF_PERICENTER": 91.5825, "MEAN_ANOMALY": 228.9332, "EPHEMERIS_TYPE": 0, "CLASSIFICATION_TYPE": "U", "NORAD_CAT_ID": 44333, "ELEMENT_SET_NO": 999, "REV_AT_EPOCH": 2366, "BSTAR": 0, "MEAN_MOTION_DOT": -9.6e-07, "MEAN_MOTION_DDOT": 0}, "tle": {"line1": "1 44333U 19034A   25337.16711391 -.00000096  00000+0  00000+0 0  9997", "line2": "2 44333   0.0307  71.0477 0000488  91.5825 228.9332  1.00268541 23668"}}, "geometry": {"type": "Point", "coordinates": [134.89120928345685, 0.015400973313503827]}}]}